[{"OBJECT_NAME":"YAOGAN-30 04B","OBJECT_ID":"2017-085B","EPOCH":"2026-03-09T23:08:06.218304","MEAN_MOTION":15.02136468,"ECCENTRICITY":0.00051709,"INCLINATION":34.9961,"RA_OF_ASC_NODE":34.6701,"ARG_OF_PERICENTER":206.1156,"MEAN_ANOMALY":153.9292,"EPHEMERIS_TYPE":0,"CLASSIFICATION_TYPE":"U","NORAD_CAT_ID":43082,"ELEMENT_SET_NO":999,"REV_AT_EPOCH":44776,"BSTAR":0.0003202307,"MEAN_MOTION_DOT":4.272e-5,"MEAN_MOTION_DDOT":0},{"OBJECT_NAME":"STARLINK-5091","OBJECT_ID":"2022-177BF","EPOCH":"2026-03-09T13:53:38.814144","MEAN_MOTION":15.031382,"ECCENTRICITY":8.06e-5,"INCLINATION":43.0026,"RA_OF_ASC_NODE":120.4912,"ARG_OF_PERICENTER":315.7493,"MEAN_ANOMALY":44.3285,"EPHEMERIS_TYPE":0,"CLASSIFICATION_TYPE":"U","NORAD_CAT_ID":54873,"ELEMENT_SET_NO":999,"REV_AT_EPOCH":17709,"BSTAR":0.00023146,"MEAN_MOTION_DOT":2.974e-5,"MEAN_MOTION_DDOT":0}]
